[{"OBJECT_NAME":"STARLINK-31570","OBJECT_ID":"2024-057E","EPOCH":"2026-03-09T08:33:51.691392","MEAN_MOTION":15.27569828,"ECCENTRICITY":7.151e-5,"INCLINATION":42.9966,"RA_OF_ASC_NODE":189.3406,"ARG_OF_PERICENTER":262.3342,"MEAN_ANOMALY":97.7428,"EPHEMERIS_TYPE":0,"CLASSIFICATION_TYPE":"U","NORAD_CAT_ID":59324,"ELEMENT_SET_NO":999,"REV_AT_EPOCH":10978,"BSTAR":1.0164709e-5,"MEAN_MOTION_DOT":1.8e-7,"MEAN_MOTION_DDOT":0},{"OBJECT_NAME":"TEVEL2-9","OBJECT_ID":"2025-052AD","EPOCH":"2026-03-09T16:51:18.321696","MEAN_MOTION":15.28633834,"ECCENTRICITY":0.000799,"INCLINATION":97.4057,"RA_OF_ASC_NODE":324.3929,"ARG_OF_PERICENTER":124.2475,"MEAN_ANOMALY":235.9522,"EPHEMERIS_TYPE":0,"CLASSIFICATION_TYPE":"U","NORAD_CAT_ID":63237,"ELEMENT_SET_NO":999,"REV_AT_EPOCH":5481,"BSTAR":0.00067240159,"MEAN_MOTION_DOT":0.00018694,"MEAN_MOTION_DDOT":0}]
